start=new Date('2023-04-06T00:00:00.000Z').valueOf();
sats=[{"RCS_SIZE":"LARGE","GP_ID":"229573954","REF_FRAME":"TEME","OBJECT_NAME":"STARLINK-5397","ELEMENT_SET_NO":"999","LAUNCH_DATE":"2022-12-28","EPOCH":"2023-04-05T16:42:17.462880","SEMIMAJOR_AXIS":"6937.211","BSTAR":"0.00004621000000","OBJECT_ID":"2022-177BD","CLASSIFICATION_TYPE":"U","CENTER_NAME":"EARTH","REV_AT_EPOCH":"1630","ECCENTRICITY":"0.00010950","PERIAPSIS":"558.317","DECAY_DATE":null,"MEAN_MOTION":"15.02537720","COUNTRY_CODE":"US","TLE_LINE2":"2 54871  43.0023 168.6918 0001095 278.8489  81.2230 15.02537720 16307","TLE_LINE1":"1 54871U 22177BD  23095.69603545  .00000421  00000-0  46210-4 0  9995","TIME_SYSTEM":"UTC","MEAN_MOTION_DOT":"0.00000421","APOAPSIS":"559.836","SITE":"AFETR","PERIOD":"95.838","INCLINATION":"43.0023","ARG_OF_PERICENTER":"278.8489","MEAN_ELEMENT_THEORY":"SGP4","NORAD_CAT_ID":"54871","MEAN_ANOMALY":"81.2230","MEAN_MOTION_DDOT":"0.0000000000000","FILE":"3881153","OBJECT_TYPE":"PAYLOAD","RA_OF_ASC_NODE":"168.6918","EPHEMERIS_TYPE":"0"},{"TLE_LINE1":"1 54872U 22177BE  23095.68049777  .00000510  00000-0  52793-4 0  9998","TIME_SYSTEM":"UTC","MEAN_MOTION_DOT":"0.00000510","APOAPSIS":"559.997","SITE":"AFETR","INCLINATION":"43.0021","PERIOD":"95.838","ARG_OF_PERICENTER":"257.1533","NORAD_CAT_ID":"54872","MEAN_ELEMENT_THEORY":"SGP4","MEAN_ANOMALY":"102.9161","MEAN_MOTION_DDOT":"0.0000000000000","FILE":"3881153","OBJECT_TYPE":"PAYLOAD","RA_OF_ASC_NODE":"168.6015","EPHEMERIS_TYPE":"0","REF_FRAME":"TEME","GP_ID":"229573687","RCS_SIZE":"LARGE","OBJECT_NAME":"STARLINK-5390","ELEMENT_SET_NO":"999","LAUNCH_DATE":"2022-12-28","EPOCH":"2023-04-05T16:19:55.007328","SEMIMAJOR_AXIS":"6937.210","BSTAR":"0.00005279300000","OBJECT_ID":"2022-177BE","CLASSIFICATION_TYPE":"U","CENTER_NAME":"EARTH","REV_AT_EPOCH":"1630","ECCENTRICITY":"0.00013290","PERIAPSIS":"558.153","DECAY_DATE":null,"MEAN_MOTION":"15.02538248","COUNTRY_CODE":"US","TLE_LINE2":"2 54872  43.0021 168.6015 0001329 257.1533 102.9161 15.02538248 16304"},{"COUNTRY_CODE":"US","MEAN_MOTION":"15.02529383","TLE_LINE2":"2 54873  43.0027 167.5068 0002049 257.0624 102.9989 15.02529383 15359","REV_AT_EPOCH":"1535","ECCENTRICITY":"0.00020490","PERIAPSIS":"557.680","DECAY_DATE":null,"CENTER_NAME":"EARTH","OBJECT_ID":"2022-177BF","CLASSIFICATION_TYPE":"U","BSTAR":"-0.00010882000000","SEMIMAJOR_AXIS":"6937.237","RCS_SIZE":"LARGE","GP_ID":"229547187","REF_FRAME":"TEME","OBJECT_NAME":"STARLINK-5091","LAUNCH_DATE":"2022-12-28","EPOCH":"2023-04-05T21:10:18.227424","ELEMENT_SET_NO":"999","OBJECT_TYPE":"PAYLOAD","RA_OF_ASC_NODE":"167.5068","EPHEMERIS_TYPE":"0","FILE":"3881137","MEAN_MOTION_DDOT":"0.0000000000000","PERIOD":"95.838","INCLINATION":"43.0027","ARG_OF_PERICENTER":"257.0624","NORAD_CAT_ID":"54873","MEAN_ELEMENT_THEORY":"SGP4","MEAN_ANOMALY":"102.9989","SITE":"AFETR","MEAN_MOTION_DOT":"-0.00001673","APOAPSIS":"560.523","TIME_SYSTEM":"UTC","TLE_LINE1":"1 54873U 22177BF  23095.88215541 -.00001673  00000-0 -10882-3 0  9990"},{"CENTER_NAME":"EARTH","REV_AT_EPOCH":"1238","ECCENTRICITY":"0.00033390","PERIAPSIS":"567.222","DECAY_DATE":null,"MEAN_MOTION":"14.99143933","COUNTRY_CODE":"US","TLE_LINE2":"2 55269  70.0011 219.2066 0003339 268.1224   9.1327 14.99143933 12389","REF_FRAME":"TEME","GP_ID":"229547708","RCS_SIZE":"LARGE","OBJECT_NAME":"STARLINK-5277","EPOCH":"2023-04-06T00:00:00.999648","LAUNCH_DATE":"2023-01-19","ELEMENT_SET_NO":"999","SEMIMAJOR_AXIS":"6947.677","BSTAR":"-0.00239380000000","OBJECT_ID":"2023-010A","CLASSIFICATION_TYPE":"U","SITE":"AFWTR","INCLINATION":"70.0011","PERIOD":"96.055","ARG_OF_PERICENTER":"268.1224","NORAD_CAT_ID":"55269","MEAN_ELEMENT_THEORY":"SGP4","MEAN_ANOMALY":"9.1327","MEAN_MOTION_DDOT":"0.0000000000000","FILE":"3881142","OBJECT_TYPE":"PAYLOAD","RA_OF_ASC_NODE":"219.2066","EPHEMERIS_TYPE":"0","TLE_LINE1":"1 55269U 23010A   23096.00001157 -.00029145  00000-0 -23938-2 0  9997","TIME_SYSTEM":"UTC","MEAN_MOTION_DOT":"-0.00029145","APOAPSIS":"571.862"},{"OBJECT_NAME":"STARLINK-5301","GP_ID":"229547189","RCS_SIZE":"LARGE","REF_FRAME":"TEME","LAUNCH_DATE":"2023-01-19","EPOCH":"2023-04-06T00:00:00.999648","ELEMENT_SET_NO":"999","SEMIMAJOR_AXIS":"6947.665","BSTAR":"-0.00240600000000","OBJECT_ID":"2023-010B","CLASSIFICATION_TYPE":"U","CENTER_NAME":"EARTH","ECCENTRICITY":"0.00032060","REV_AT_EPOCH":"1238","DECAY_DATE":null,"PERIAPSIS":"567.302","MEAN_MOTION":"14.99147893","COUNTRY_CODE":"US","TLE_LINE2":"2 55270  70.0009 219.2807 0003206 273.4083 297.5484 14.99147893 12382","TLE_LINE1":"1 55270U 23010B   23096.00001157 -.00029295  00000-0 -24060-2 0  9992","TIME_SYSTEM":"UTC","APOAPSIS":"571.757","MEAN_MOTION_DOT":"-0.00029295","SITE":"AFWTR","ARG_OF_PERICENTER":"273.4083","INCLINATION":"70.0009","PERIOD":"96.055","MEAN_ANOMALY":"297.5484","MEAN_ELEMENT_THEORY":"SGP4","NORAD_CAT_ID":"55270","FILE":"3881137","MEAN_MOTION_DDOT":"0.0000000000000","OBJECT_TYPE":"PAYLOAD","EPHEMERIS_TYPE":"0","RA_OF_ASC_NODE":"219.2807"},{"LAUNCH_DATE":"2023-01-19","EPOCH":"2023-04-05T22:00:00.999936","ELEMENT_SET_NO":"999","OBJECT_NAME":"STARLINK-5306","GP_ID":"229572747","RCS_SIZE":"LARGE","REF_FRAME":"TEME","SEMIMAJOR_AXIS":"6947.662","BSTAR":"-0.00218060000000","CLASSIFICATION_TYPE":"U","OBJECT_ID":"2023-010C","CENTER_NAME":"EARTH","DECAY_DATE":null,"PERIAPSIS":"567.229","ECCENTRICITY":"0.00033080","REV_AT_EPOCH":"130","TLE_LINE2":"2 55271  70.0013 219.4414 0003308 271.7284 254.5559 14.99148762  1303","COUNTRY_CODE":"US","MEAN_MOTION":"14.99148762","TLE_LINE1":"1 55271U 23010C   23095.91667824 -.00026571  00000-0 -21806-2 0  9990","TIME_SYSTEM":"UTC","APOAPSIS":"571.825","MEAN_MOTION_DOT":"-0.00026571","SITE":"AFWTR","MEAN_ANOMALY":"254.5559","NORAD_CAT_ID":"55271","MEAN_ELEMENT_THEORY":"SGP4","ARG_OF_PERICENTER":"271.7284","INCLINATION":"70.0013","PERIOD":"96.055","MEAN_MOTION_DDOT":"0.0000000000000","FILE":"3881153","EPHEMERIS_TYPE":"0","RA_OF_ASC_NODE":"219.4414","OBJECT_TYPE":"PAYLOAD"},{"TIME_SYSTEM":"UTC","MEAN_MOTION_DOT":"-0.00030249","APOAPSIS":"571.833","TLE_LINE1":"1 55272U 23010D   23096.00001157 -.00030249  00000-0 -24851-2 0  9993","MEAN_MOTION_DDOT":"0.0000000000000","FILE":"3881137","OBJECT_TYPE":"PAYLOAD","RA_OF_ASC_NODE":"219.2986","EPHEMERIS_TYPE":"0","SITE":"AFWTR","INCLINATION":"70.0004","PERIOD":"96.055","ARG_OF_PERICENTER":"270.8820","MEAN_ELEMENT_THEORY":"SGP4","NORAD_CAT_ID":"55272","MEAN_ANOMALY":"283.8062","BSTAR":"-0.00248510000000","OBJECT_ID":"2023-010D","CLASSIFICATION_TYPE":"U","REF_FRAME":"TEME","GP_ID":"229547188","RCS_SIZE":"LARGE","OBJECT_NAME":"STARLINK-5310","LAUNCH_DATE":"2023-01-19","ELEMENT_SET_NO":"999","EPOCH":"2023-04-06T00:00:00.999648","SEMIMAJOR_AXIS":"6947.673","COUNTRY_CODE":"US","MEAN_MOTION":"14.99145129","TLE_LINE2":"2 55272  70.0004 219.2986 0003303 270.8820 283.8062 14.99145129 12385","CENTER_NAME":"EARTH","REV_AT_EPOCH":"1238","ECCENTRICITY":"0.00033030","PERIAPSIS":"567.243","DECAY_DATE":null},{"OBJECT_ID":"2023-010E","CLASSIFICATION_TYPE":"U","BSTAR":"-0.00247480000000","SEMIMAJOR_AXIS":"6947.673","OBJECT_NAME":"STARLINK-5291","GP_ID":"229547738","REF_FRAME":"TEME","RCS_SIZE":"LARGE","LAUNCH_DATE":"2023-01-19","EPOCH":"2023-04-06T00:00:00.999648","ELEMENT_SET_NO":"999","COUNTRY_CODE":"US","MEAN_MOTION":"14.99145277","TLE_LINE2":"2 55273  70.0015 219.1816 0003631 271.8229  27.8967 14.99145277 12381","ECCENTRICITY":"0.00036310","REV_AT_EPOCH":"1238","DECAY_DATE":null,"PERIAPSIS":"567.015","CENTER_NAME":"EARTH","APOAPSIS":"572.061","MEAN_MOTION_DOT":"-0.00030126","TIME_SYSTEM":"UTC","TLE_LINE1":"1 55273U 23010E   23096.00001157 -.00030126  00000-0 -24748-2 0  9993","OBJECT_TYPE":"PAYLOAD","EPHEMERIS_TYPE":"0","RA_OF_ASC_NODE":"219.1816","MEAN_MOTION_DDOT":"0.0000000000000","FILE":"3881142","ARG_OF_PERICENTER":"271.8229","PERIOD":"96.055","INCLINATION":"70.0015","MEAN_ANOMALY":"27.8967","NORAD_CAT_ID":"55273","MEAN_ELEMENT_THEORY":"SGP4","SITE":"AFWTR"},{"FILE":"3881153","MEAN_MOTION_DDOT":"0.0000000000000","EPHEMERIS_TYPE":"0","RA_OF_ASC_NODE":"214.7666","OBJECT_TYPE":"PAYLOAD","SITE":"AFWTR","MEAN_ANOMALY":"96.9289","MEAN_ELEMENT_THEORY":"SGP4","NORAD_CAT_ID":"55274","ARG_OF_PERICENTER":"263.1547","PERIOD":"91.723","INCLINATION":"69.9997","TIME_SYSTEM":"UTC","APOAPSIS":"361.210","MEAN_MOTION_DOT":"0.00002004","TLE_LINE1":"1 55274U 23010F   23095.70400059  .00002004  00000-0  18422-4 0  9990","TLE_LINE2":"2 55274  69.9997 214.7666 0003163 263.1547  96.9289 15.69936986 12780","COUNTRY_CODE":"US","MEAN_MOTION":"15.69936986","CENTER_NAME":"EARTH","DECAY_DATE":null,"PERIAPSIS":"356.948","ECCENTRICITY":"0.00031630","REV_AT_EPOCH":"1278","BSTAR":"0.00001842200000","CLASSIFICATION_TYPE":"U","OBJECT_ID":"2023-010F","EPOCH":"2023-04-05T16:53:45.650976","LAUNCH_DATE":"2023-01-19","ELEMENT_SET_NO":"999","OBJECT_NAME":"STARLINK-5236","RCS_SIZE":"LARGE","GP_ID":"229572497","REF_FRAME":"TEME","SEMIMAJOR_AXIS":"6737.214"},{"CENTER_NAME":"EARTH","REV_AT_EPOCH":"1278","ECCENTRICITY":"0.00021680","PERIAPSIS":"357.753","DECAY_DATE":null,"MEAN_MOTION":"15.69889954","COUNTRY_CODE":"US","TLE_LINE2":"2 55275  69.9994 214.7672 0002168 248.4419 111.6545 15.69889954 12785","GP_ID":"229573248","RCS_SIZE":"LARGE","REF_FRAME":"TEME","OBJECT_NAME":"STARLINK-5260","LAUNCH_DATE":"2023-01-19","EPOCH":"2023-04-05T16:53:38.084928","ELEMENT_SET_NO":"999","SEMIMAJOR_AXIS":"6737.349","BSTAR":"0.00009574600000","OBJECT_ID":"2023-010G","CLASSIFICATION_TYPE":"U","SITE":"AFWTR","PERIOD":"91.726","INCLINATION":"69.9994","ARG_OF_PERICENTER":"248.4419","MEAN_ELEMENT_THEORY":"SGP4","NORAD_CAT_ID":"55275","MEAN_ANOMALY":"111.6545","FILE":"3881153","MEAN_MOTION_DDOT":"0.0000000000000","OBJECT_TYPE":"PAYLOAD","RA_OF_ASC_NODE":"214.7672","EPHEMERIS_TYPE":"0","TLE_LINE1":"1 55275U 23010G   23095.70391302  .00011298  00000-0  95746-4 0  9990","TIME_SYSTEM":"UTC","MEAN_MOTION_DOT":"0.00011298","APOAPSIS":"360.674"}];
